ONEWEB-0228             
1 48780U 21045P   24063.05465037  .00000039  00000+0  69117-4 0  9993
2 48780  87.8945  65.5886 0001953  85.0957 275.0396 13.15548723135527
